ONEWEB-0116             
1 48046U 21025E   25334.83635123  .00000384  00000+0  10173-2 0  9998
2 48046  87.8991 359.6333 0001875  96.1381 263.9961 13.13470345227612
ONEWEB-0150             
1 48047U 21025F   25334.58411046  .00000110  00000+0  26669-3 0  9992
2 48047  87.8997 359.6787 0001586  96.6762 263.4548 13.13470610227474
ONEWEB-0107             
1 48048U 21025G   25334.81434436  .00000087  00000+0  20315-3 0  9992
2 48048  87.8995 359.6297 0001588  86.6302 273.5009 13.13470363227480
ONEWEB-0101             
1 48049U 21025H   25334.62474229 -.00000025  00000+0 -10311-3 0  9995
2 48049  87.8987 359.7016 0001793  88.3800 271.7535 13.13469883227436
ONEWEB-0113             
1 48050U 21025J   25334.79808108 -.00000188  00000+0 -54474-3 0  9990
2 48050  87.8992 359.5973 0001784 102.1835 257.9494 13.13984395227550
ONEWEB-0112             
1 48051U 21025K   25334.81942080  .00000222  00000+0  57252-3 0  9996
2 48051  87.8995 359.6258 0001690  95.0983 265.0339 13.13471427227556
ONEWEB-0156             
1 48052U 21025L   25334.82788147  .00000427  00000+0  11355-2 0  9990
2 48052  87.8994 359.6359 0001601  92.1367 267.9945 13.13470670227535
ONEWEB-0161             
1 48053U 21025M   25334.80248536 -.00000119  00000+0 -35969-3 0  9990
2 48053  87.8987 359.6569 0001600  90.0528 270.0784 13.13470082227461
